{"type": "FeatureCollection", "features": [ {"type": "Feature", "properties": {"norad_id": 38121, "name": "FENGYUN 1C DEB", "group": "fengyun-1c-debris", "lat": 54.570344887220124, "lon": 140.11106505933154, "alt_km": 685.3438722557903, "timestamp": "2025-12-27T04:40:45.795129+00:00", "meta": {"OBJECT_NAME": "FENGYUN 1C DEB", "OBJECT_ID": "1999-025EPS", "EPOCH": "2025-12-13T04:20:01.430304", "MEAN_MOTION": 14.21784212, "ECCENTRICITY": 0.02064826, "INCLINATION": 99.1148, "RA_OF_ASC_NODE": 138.6695, "ARG_OF_PERICENTER": 126.4735, "MEAN_ANOMALY": 235.5664, "EPHEMERIS_TYPE": 0, "CLASSIFICATION_TYPE": "U", "NORAD_CAT_ID": 38121, "ELEMENT_SET_NO": 999, "REV_AT_EPOCH": 83926, "BSTAR": 0.0016630973, "MEAN_MOTION_DOT": 4.5e-05, "MEAN_MOTION_DDOT": 0}, "tle": {"line1": "1 38121U 99025EPS 25347.18057211  .00004500  00000+0  16631-2 0  9993", "line2": "2 38121  99.1148 138.6695 0206482 126.4735 235.5664 14.21784212839268"}}, "geometry": {"type": "Point", "coordinates": [140.11106505933154, 54.570344887220124]}}, {"type": "Feature", "properties": {"norad_id": 38122, "name": "FENGYUN 1C DEB", "group": "fengyun-1c-debris", "lat": -8.852620385336577, "lon": 4.592062949522677, "alt_km": 837.2965832510554, "timestamp": "2025-12-27T04:40:45.795139+00:00", "meta": {"OBJECT_NAME": "FENGYUN 1C DEB", "OBJECT_ID": "1999-025EPT", "EPOCH": "2025-12-20T11:15:30.693600", "MEAN_MOTION": 14.42669791, "ECCENTRICITY": 0.02281626, "INCLINATION": 98.3168, "RA_OF_ASC_NODE": 356.7199, "ARG_OF_PERICENTER": 133.5612, "MEAN_ANOMALY": 228.4777, "EPHEMERIS_TYPE": 0, "CLASSIFICATION_TYPE": "U", "NORAD_CAT_ID": 38122, "ELEMENT_SET_NO": 999, "REV_AT_EPOCH": 67850, "BSTAR": 0.00022815826, "MEAN_MOTION_DOT": 9.88e-06, "MEAN_MOTION_DDOT": 0}, "tle": {"line1": "1 38122U 99025EPT 25354.46910525  .00000988  00000+0  22816-3 0  9998", "line2": "2 38122  98.3168 356.7199 0228162 133.5612 228.4777 14.42669791678507"}}, "geometry": {"type": "Point", "coordinates": [4.592062949522677, -8.852620385336577]}}, {"type": "Feature", "properties": {"norad_id": 38124, "name": "FENGYUN 1C DEB", "group": "fengyun-1c-debris", "lat": 40.18902825014574, "lon": -56.137651764161795, "alt_km": 1275.5925190570933, "timestamp": "2025-12-27T04:40:45.795149+00:00", "meta": {"OBJECT_NAME": "FENGYUN 1C DEB", "OBJECT_ID": "1999-025EPV", "EPOCH": "2025-12-26T14:08:47.139936", "MEAN_MOTION": 13.40940286, "ECCENTRICITY": 0.0355152, "INCLINATION": 97.8088, "RA_OF_ASC_NODE": 310.0498, "ARG_OF_PERICENTER": 270.1541, "MEAN_ANOMALY": 85.8909, "EPHEMERIS_TYPE": 0, "CLASSIFICATION_TYPE": "U", "NORAD_CAT_ID": 38124, "ELEMENT_SET_NO": 999, "REV_AT_EPOCH": 54767, "BSTAR": 0.00024512, "MEAN_MOTION_DOT": 1.64e-06, "MEAN_MOTION_DDOT": 0}, "tle": {"line1": "1 38124U 99025EPV 25360.58943449  .00000164  00000+0  24512-3 0  9992", "line2": "2 38124  97.8088 310.0498 0355152 270.1541  85.8909 13.40940286547671"}}, "geometry": {"type": "Point", "coordinates": [-56.137651764161795, 40.18902825014574]}}, {"type": "Feature", "properties": {"norad_id": 38130, "name": "FENGYUN 1C DEB", "group": "fengyun-1c-debris", "lat": -8.368146642536917, "lon": -129.73407194892468, "alt_km": 824.2322468695893, "timestamp": "2025-12-27T04:40:45.795160+00:00", "meta": {"OBJECT_NAME": "FENGYUN 1C DEB", "OBJECT_ID": "1999-025EQB", "EPOCH": "2025-11-28T09:19:02.490528", "MEAN_MOTION": 13.7720595, "ECCENTRICITY": 0.02085156, "INCLINATION": 98.6035, "RA_OF_ASC_NODE": 25.4413, "ARG_OF_PERICENTER": 263.5047, "MEAN_ANOMALY": 94.2329, "EPHEMERIS_TYPE": 0, "CLASSIFICATION_TYPE": "U", "NORAD_CAT_ID": 38130, "ELEMENT_SET_NO": 999, "REV_AT_EPOCH": 69085, "BSTAR": 0.0016964005, "MEAN_MOTION_DOT": 1.933e-05, "MEAN_MOTION_DDOT": 0}, "tle": {"line1": "1 38130U 99025EQB 25332.38822327  .00001933  00000+0  16964-2 0  9993", "line2": "2 38130  98.6035  25.4413 0208515 263.5047  94.2329 13.77205950690851"}}, "geometry": {"type": "Point", "coordinates": [-129.73407194892468, -8.368146642536917]}}, {"type": "Feature", "properties": {"norad_id": 38135, "name": "FENGYUN 1C DEB", "group": "fengyun-1c-debris", "lat": 3.150002338699625, "lon": -121.71485419060417, "alt_km": 943.6025830154667, "timestamp": "2025-12-27T04:40:45.795170+00:00", "meta": {"OBJECT_NAME": "FENGYUN 1C DEB", "OBJECT_ID": "1999-025EQG", "EPOCH": "2025-12-20T10:07:36.417792", "MEAN_MOTION": 14.25297349, "ECCENTRICITY": 0.02226674, "INCLINATION": 98.6595, "RA_OF_ASC_NODE": 51.1134, "ARG_OF_PERICENTER": 49.0857, "MEAN_ANOMALY": 312.9371, "EPHEMERIS_TYPE": 0, "CLASSIFICATION_TYPE": "U", "NORAD_CAT_ID": 38135, "ELEMENT_SET_NO": 999, "REV_AT_EPOCH": 61150, "BSTAR": 0.00027123211, "MEAN_MOTION_DOT": 7.8e-06, "MEAN_MOTION_DDOT": 0}, "tle": {"line1": "1 38135U 99025EQG 25354.42194928  .00000780  00000+0  27123-3 0  9995", "line2": "2 38135  98.6595  51.1134 0222667  49.0857 312.9371 14.25297349611502"}}, "geometry": {"type": "Point", "coordinates": [-121.71485419060417, 3.150002338699625]}}, {"type": "Feature", "properties": {"norad_id": 38137, "name": "FENGYUN 1C DEB", "group": "fengyun-1c-debris", "lat": -64.43287471608981, "lon": -155.40409216531972, "alt_km": 906.5132797341612, "timestamp": "2025-12-27T04:40:45.795181+00:00", "meta": {"OBJECT_NAME": "FENGYUN 1C DEB", "OBJECT_ID": "1999-025EQJ", "EPOCH": "2025-12-11T22:03:53.453088", "MEAN_MOTION": 14.06158007, "ECCENTRICITY": 0.0046494, "INCLINATION": 98.8649, "RA_OF_ASC_NODE": 28.6821, "ARG_OF_PERICENTER": 71.683, "MEAN_ANOMALY": 288.9388, "EPHEMERIS_TYPE": 0, "CLASSIFICATION_TYPE": "U", "NORAD_CAT_ID": 38137, "ELEMENT_SET_NO": 999, "REV_AT_EPOCH": 63697, "BSTAR": 0.00049172, "MEAN_MOTION_DOT": 7.73e-06, "MEAN_MOTION_DDOT": 0}, "tle": {"line1": "1 38137U 99025EQJ 25345.91936867  .00000773  00000+0  49172-3 0  9997", "line2": "2 38137  98.8649  28.6821 0046494  71.6830 288.9388 14.06158007636976"}}, "geometry": {"type": "Point", "coordinates": [-155.40409216531972, -64.43287471608981]}}, {"type": "Feature", "properties": {"norad_id": 38143, "name": "FENGYUN 1C DEB", "group": "fengyun-1c-debris", "lat": -50.08269375470774, "lon": 67.99397185852916, "alt_km": 908.9896735787079, "timestamp": "2025-12-27T04:40:45.795196+00:00", "meta": {"OBJECT_NAME": "FENGYUN 1C DEB", "OBJECT_ID": "1999-025EQQ", "EPOCH": "2025-12-17T09:02:58.047936", "MEAN_MOTION": 14.0490641, "ECCENTRICITY": 0.00563343, "INCLINATION": 99.0304, "RA_OF_ASC_NODE": 47.2681, "ARG_OF_PERICENTER": 207.7954, "MEAN_ANOMALY": 152.0199, "EPHEMERIS_TYPE": 0, "CLASSIFICATION_TYPE": "U", "NORAD_CAT_ID": 38143, "ELEMENT_SET_NO": 999, "REV_AT_EPOCH": 60348, "BSTAR": 0.00075665918, "MEAN_MOTION_DOT": 1.189e-05, "MEAN_MOTION_DDOT": 0}, "tle": {"line1": "1 38143U 99025EQQ 25351.37706074  .00001189  00000+0  75666-3 0  9995", "line2": "2 38143  99.0304  47.2681 0056334 207.7954 152.0199 14.04906410603486"}}, "geometry": {"type": "Point", "coordinates": [67.99397185852916, -50.08269375470774]}}, {"type": "Feature", "properties": {"norad_id": 38144, "name": "FENGYUN 1C DEB", "group": "fengyun-1c-debris", "lat": 76.69136151711012, "lon": 142.5644557063468, "alt_km": 967.283542945258, "timestamp": "2025-12-27T04:40:45.795206+00:00", "meta": {"OBJECT_NAME": "FENGYUN 1C DEB", "OBJECT_ID": "1999-025EQR", "EPOCH": "2025-12-12T07:21:41.538528", "MEAN_MOTION": 13.59024242, "ECCENTRICITY": 0.02903277, "INCLINATION": 98.9688, "RA_OF_ASC_NODE": 170.8072, "ARG_OF_PERICENTER": 192.7812, "MEAN_ANOMALY": 166.5857, "EPHEMERIS_TYPE": 0, "CLASSIFICATION_TYPE": "U", "NORAD_CAT_ID": 38144, "ELEMENT_SET_NO": 999, "REV_AT_EPOCH": 61031, "BSTAR": 0.0024533733, "MEAN_MOTION_DOT": 2.337e-05, "MEAN_MOTION_DDOT": 0}, "tle": {"line1": "1 38144U 99025EQR 25346.30673077  .00002337  00000+0  24534-2 0  9992", "line2": "2 38144  98.9688 170.8072 0290327 192.7812 166.5857 13.59024242610319"}}, "geometry": {"type": "Point", "coordinates": [142.5644557063468, 76.69136151711012]}}, {"type": "Feature", "properties": {"norad_id": 38146, "name": "FENGYUN 1C DEB", "group": "fengyun-1c-debris", "lat": 0.054290664665216364, "lon": -96.22925525808394, "alt_km": 767.6077898374806, "timestamp": "2025-12-27T04:40:45.795217+00:00", "meta": {"OBJECT_NAME": "FENGYUN 1C DEB", "OBJECT_ID": "1999-025EQT", "EPOCH": "2025-12-25T12:25:53.891040", "MEAN_MOTION": 14.59352927, "ECCENTRICITY": 0.0201846, "INCLINATION": 99.4818, "RA_OF_ASC_NODE": 81.8467, "ARG_OF_PERICENTER": 64.7401, "MEAN_ANOMALY": 307.702, "EPHEMERIS_TYPE": 0, "CLASSIFICATION_TYPE": "U", "NORAD_CAT_ID": 38146, "ELEMENT_SET_NO": 999, "REV_AT_EPOCH": 32066, "BSTAR": 0.00075321, "MEAN_MOTION_DOT": 4.671e-05, "MEAN_MOTION_DDOT": 0}, "tle": {"line1": "1 38146U 99025EQT 25359.51798485  .00004671  00000+0  75321-3 0  9996", "line2": "2 38146  99.4818  81.8467 0201846  64.7401 307.7020 14.59352927320663"}}, "geometry": {"type": "Point", "coordinates": [-96.22925525808394, 0.054290664665216364]}}, {"type": "Feature", "properties": {"norad_id": 38147, "name": "FENGYUN 1C DEB", "group": "fengyun-1c-debris", "lat": -76.41789215957887, "lon": 53.57825713200157, "alt_km": 788.0664204774475, "timestamp": "2025-12-27T04:40:45.795227+00:00", "meta": {"OBJECT_NAME": "FENGYUN 1C DEB", "OBJECT_ID": "1999-025EQU", "EPOCH": "2025-12-26T18:55:43.044960", "MEAN_MOTION": 14.23480835, "ECCENTRICITY": 0.00496538, "INCLINATION": 98.5577, "RA_OF_ASC_NODE": 14.6284, "ARG_OF_PERICENTER": 258.549, "MEAN_ANOMALY": 101.011, "EPHEMERIS_TYPE": 0, "CLASSIFICATION_TYPE": "U", "NORAD_CAT_ID": 38147, "ELEMENT_SET_NO": 999, "REV_AT_EPOCH": 60587, "BSTAR": 0.00058247883, "MEAN_MOTION_DOT": 1.298e-05, "MEAN_MOTION_DDOT": 0}, "tle": {"line1": "1 38147U 99025EQU 25360.78869265  .00001298  00000+0  58248-3 0  9994", "line2": "2 38147  98.5577  14.6284 0049653 258.5490 101.0110 14.23480835605879"}}, "geometry": {"type": "Point", "coordinates": [53.57825713200157, -76.41789215957887]}}]}